{
    "links": {
        "self": "http://www.neowsapp.com/rest/v1/neo/3574133?api_key=iIulBulltgU6a56xZRHN4H3l9WmuAYTsLGpBGhQ2"
    },
    "id": "3574133",
    "neo_reference_id": "3574133",
    "name": "(2011 OW17)",
    "designation": "2011 OW17",
    "nasa_jpl_url": "http://ssd.jpl.nasa.gov/sbdb.cgi?sstr=3574133",
    "absolute_magnitude_h": 21.3,
    "estimated_diameter": {
        "kilometers": {
            "estimated_diameter_min": 0.1460679643,
            "estimated_diameter_max": 0.3266178974
        },
        "meters": {
            "estimated_diameter_min": 146.0679642714,
            "estimated_diameter_max": 326.6178974458
        },
        "miles": {
            "estimated_diameter_min": 0.090762397,
            "estimated_diameter_max": 0.2029508896
        },
        "feet": {
            "estimated_diameter_min": 479.2256199,
            "estimated_diameter_max": 1071.581062656
        }
    },
    "is_potentially_hazardous_asteroid": false,
    "close_approach_data": [
        {
            "close_approach_date": "1994-07-21",
            "close_approach_date_full": "1994-Jul-21 09:47",
            "epoch_date_close_approach": 774784020000,
            "relative_velocity": {
                "kilometers_per_second": "14.2628837542",
                "kilometers_per_hour": "51346.381515161",
                "miles_per_hour": "31904.6446697955"
            },
            "miss_distance": {
                "astronomical": "0.4206165246",
                "lunar": "163.6198280694",
                "kilometers": "62923336.166962602",
                "miles": "39098748.0611118276"
            },
            "orbiting_body": "Earth"
        },
        {
            "close_approach_date": "2011-07-22",
            "close_approach_date_full": "2011-Jul-22 23:36",
            "epoch_date_close_approach": 1311377760000,
            "relative_velocity": {
                "kilometers_per_second": "13.8736874271",
                "kilometers_per_hour": "49945.2747376306",
                "miles_per_hour": "31034.0514057238"
            },
            "miss_distance": {
                "astronomical": "0.4768569513",
                "lunar": "185.4973540557",
                "kilometers": "71336784.209173731",
                "miles": "44326622.2547942478"
            },
            "orbiting_body": "Earth"
        }
    ],
    "orbital_data": {
        "orbit_id": "7",
        "orbit_determination_date": "2017-04-06 08:53:06",
        "first_observation_date": "2011-07-28",
        "last_observation_date": "2011-08-29",
        "data_arc_in_days": 32,
        "observations_used": 14,
        "orbit_uncertainty": "7",
        "minimum_orbit_intersection": ".392581",
        "jupiter_tisserand_invariant": "3.054",
        "epoch_osculation": "2459000.5",
        "eccentricity": ".5206031227425861",
        "semi_major_axis": "2.621718260141733",
        "inclination": "28.07440229281548",
        "ascending_node_longitude": "137.2798333169455",
        "orbital_period": "1550.52029531521",
        "perihelion_distance": "1.256843546960687",
        "perihelion_argument": "121.1226333775281",
        "aphelion_distance": "3.98659297332278",
        "perihelion_time": "2458805.899907905354",
        "mean_anomaly": "45.18227421191582",
        "mean_motion": ".2321801275918252",
        "equinox": "J2000",
        "orbit_class": {
            "orbit_class_type": "AMO",
            "orbit_class_description": "Near-Earth asteroid orbits similar to that of 1221 Amor",
            "orbit_class_range": "1.017 AU < q (perihelion) < 1.3 AU"
        }
    },
    "is_sentry_object": false
}